ONEWEB-0492             
1 54114U 22138B   25075.90878061  .00000162  00000+0  37200-3 0  9992
2 54114  87.9216  35.8558 0001975  75.1783 284.9568 13.19727368117397
ONEWEB-0495             
1 54115U 22138C   25075.96248017  .00000053  00000+0  10020-3 0  9991
2 54115  87.9217  35.8566 0002633  76.4857 283.6569 13.19724191116517
ONEWEB-0497             
1 54116U 22138D   25075.89930582  .00000115  00000+0  25560-3 0  9993
2 54116  87.9210  35.8455 0002019  79.8026 280.3335 13.19724395116499
ONEWEB-0499             
1 54117U 22138E   25075.95775446  .00000049  00000+0  89525-4 0  9995
2 54117  87.9218  35.8472 0002202  90.4375 269.7010 13.19726887116519
ONEWEB-0500             
1 54118U 22138F   25075.96091227  .00000139  00000+0  31462-3 0  9991
2 54118  87.9214  35.8343 0001899  80.0029 280.1318 13.19726406116521
ONEWEB-0501             
1 54119U 22138G   25075.91510369  .00000146  00000+0  33114-3 0  9994
2 54119  87.9211  35.8379 0002415  80.5654 279.5751 13.19726896117361
ONEWEB-0502             
1 54120U 22138H   25075.90088221  .00000116  00000+0  25671-3 0  9998
2 54120  87.9209  35.8263 0002257  84.6485 275.4905 13.19727428116517
ONEWEB-0503             
1 54121U 22138J   25075.96564646  .00000102  00000+0  22255-3 0  9995
2 54121  87.9208  35.8189 0001940  91.9960 268.1395 13.19727139116512
